ONEWEB-0271             
1 48989U 21060Y   25335.57875981  .00000197  00000+0  48173-3 0  9997
2 48989  87.9040 268.1201 0002024  75.5936 284.5419 13.16594393213666
ONEWEB-0272             
1 48990U 21060Z   25335.82891676  .00000910  00000+0  23460-2 0  9990
2 48990  87.9030 268.0869 0002039  80.8042 279.3320 13.16590227213642
ONEWEB-0273             
1 48991U 21060AA  25335.85107852 -.00000086  00000+0 -25959-3 0  9992
2 48991  87.9037 268.0773 0001954  73.1849 286.9496 13.16595222213625
ONEWEB-0274             
1 48992U 21060AB  25335.80041097  .00000079  00000+0  17205-3 0  9991
2 48992  87.9024 268.1112 0001927  86.6379 273.4972 13.16593992213652
ONEWEB-0275             
1 48993U 21060AC  25335.78932735 -.00000002  00000+0 -38550-4 0  9992
2 48993  87.9033 268.0829 0001913  78.1840 281.9505 13.16593568213588
ONEWEB-0276             
1 48994U 21060AD  25335.82257544  .00000050  00000+0  95958-4 0  9992
2 48994  87.9039 268.0755 0001857  69.2570 290.8760 13.16594391213601
ONEWEB-0277             
1 48995U 21060AE  25335.83520985 -.00000007  00000+0 -51729-4 0  9998
2 48995  87.9026 268.0984 0001995  79.4005 280.7350 13.16599496213593
ONEWEB-0278             
1 48996U 21060AF  25335.82573740  .00000021  00000+0  21016-4 0  9995
2 48996  87.9038 268.0716 0001625  71.4064 288.7243 13.16596426213721
ONEWEB-0279             
1 48997U 21060AG  25335.83367197 -.00000006  00000+0 -49141-4 0  9998
2 48997  87.9038 268.0678 0002098  78.5305 281.6062 13.16594317213650
ONEWEB-0280             
1 48998U 21060AH  25335.84868463  .00000056  00000+0  11184-3 0  9990
2 48998  87.9038 268.0706 0001927  64.8977 295.2354 13.16592585213599
ONEWEB-0281             
1 48999U 21060AJ  25335.85424252 -.00000096  00000+0 -28492-3 0  9992
2 48999  87.9037 268.0650 0001785  79.5004 280.6327 13.16595923213668
ONEWEB-0282             
1 49000U 21060AK  25335.73233442  .00000126  00000+0  29706-3 0  9993
2 49000  87.9036 268.1002 0001931  72.9432 287.1911 13.16595013213625
ONEWEB-0283             
1 49001U 21060AL  25335.79724374  .00000090  00000+0  20272-3 0  9998
2 49001  87.9037 268.0877 0001969  76.8863 283.2487 13.16596136213642
ONEWEB-0284             
1 49002U 21060AM  25335.79091758  .00000002  00000+0 -28346-4 0  9997
2 49002  87.9039 268.0775 0001710  63.2468 296.8837 13.16593931213624
ONEWEB-0285             
1 49075U 21075A   25335.60605281  .00000501  00000+0  13582-2 0  9992
2 49075  87.8952  29.9099 0001730  96.9003 263.2322 13.12443240209298
ONEWEB-0286             
1 49076U 21075B   25335.66416623 -.00000016  00000+0 -80635-4 0  9997
2 49076  87.8946  29.9317 0001654 105.7378 254.3933 13.12444087208652
ONEWEB-0287             
1 49077U 21075C   25335.73263537 -.00000030  00000+0 -10966-3 0  9995
2 49077  87.9131  45.1292 0001380 114.8317 245.2958 13.17646171207627
ONEWEB-0288             
1 49078U 21075D   25335.71621086 -.00000386  00000+0 -11093-2 0  9996
2 49078  87.8951  29.8830 0001602  96.3472 263.7839 13.12442435209286
ONEWEB-0289             
1 49079U 21075E   25335.61941139 -.00000001  00000+0 -34496-4 0  9998
2 49079  87.9122  45.1683 0001627  86.9610 273.1708 13.17647899208185
ONEWEB-0290             
1 49080U 21075F   25335.66848704  .00000022  00000+0  24325-4 0  9990
2 49080  87.9130  45.1195 0001870  82.4068 277.7276 13.17649953207601
ONEWEB-0291             
1 49081U 21075G   25335.72923697  .00000052  00000+0  99912-4 0  9990
2 49081  87.9129  45.1142 0001297  98.0190 262.1088 13.17648280207605
ONEWEB-0293             
1 49082U 21075H   25335.75454762 -.00000049  00000+0 -15864-3 0  9997
2 49082  87.9121  45.1303 0001687  96.9735 263.1589 13.17648305207630
ONEWEB-0294             
1 49083U 21075J   25335.72269609 -.00000409  00000+0 -11727-2 0  9992
2 49083  87.8952  29.8826 0001614  83.3617 276.7695 13.12442972208670
ONEWEB-0295             
1 49084U 21075K   25335.75369778 -.00000153  00000+0 -42796-3 0  9991
2 49084  87.9123  45.1354 0001396 102.1914 257.9374 13.17646395207591
ONEWEB-0296             
1 49085U 21075L   25335.62699898  .00000014  00000+0  29163-5 0  9996
2 49085  87.8949  29.9065 0001288  92.5164 267.6112 13.12442559208663
ONEWEB-0297             
1 49086U 21075M   25335.65782354 -.00000199  00000+0 -58832-3 0  9999
2 49086  87.8943  29.9326 0001658  99.4984 260.6332 13.12443349209278
ONEWEB-0298             
1 49087U 21075N   25335.75806138 -.00000107  00000+0 -30969-3 0  9998
2 49087  87.9119  45.1314 0001818 102.6636 257.4699 13.17647909207621
ONEWEB-0299             
1 49088U 21075P   25335.75961360 -.00000063  00000+0 -19535-3 0  9995
2 49088  87.9130  45.0917 0001596 105.5343 254.5965 13.17647980207604
ONEWEB-0300             
1 49089U 21075Q   25335.64970742 -.00000396  00000+0 -11357-2 0  9990
2 49089  87.8954  29.8938 0001998 106.2897 253.8451 13.12443341209298
ONEWEB-0301             
1 49090U 21075R   25335.70972514 -.00000238  00000+0 -69684-3 0  9990
2 49090  87.8949  29.8837 0002077 106.9467 253.1889 13.12441474208664
ONEWEB-0302             
1 49091U 21075S   25335.62051234  .00000158  00000+0  40499-3 0  9991
2 49091  87.8956  29.9097 0001564  89.6824 270.4484 13.12442541208632
ONEWEB-0304             
1 49092U 21075T   25335.73430373 -.00000057  00000+0 -17992-3 0  9991
2 49092  87.9130  45.1275 0001609 102.6258 257.5054 13.17647899207572
ONEWEB-0305             
1 49093U 21075U   25335.72754556  .00000018  00000+0  12385-4 0  9990
2 49093  87.9131  45.1059 0001331 110.5844 249.5430 13.17649662207608
ONEWEB-0308             
1 49094U 21075V   25335.61401981  .00000397  00000+0  10669-2 0  9991
2 49094  87.8955  29.9037 0001765  99.9951 260.1377 13.12442338208648
ONEWEB-0309             
1 49095U 21075W   25335.73092466 -.00000055  00000+0 -17526-3 0  9992
2 49095  87.9130  45.1212 0001577  87.1337 272.9975 13.17648317207574
ONEWEB-0310             
1 49096U 21075X   25335.62861559 -.00000099  00000+0 -31107-3 0  9997
2 49096  87.8944  29.9387 0001675  95.3115 264.8205 13.12442605209276
ONEWEB-0311             
1 49097U 21075Y   25335.73766772  .00000025  00000+0  32152-4 0  9990
2 49097  87.9128  45.1160 0001467 111.8731 248.2556 13.17647455207625
ONEWEB-0312             
1 49098U 21075Z   25335.67692743  .00000017  00000+0  10573-4 0  9994
2 49098  87.9120  45.1546 0001361 100.1018 260.0267 13.17648590207596
ONEWEB-0313             
1 49099U 21075AA  25335.60592757 -.00000088  00000+0 -26105-3 0  9999
2 49099  87.9119  45.1768 0001636 103.9904 256.1409 13.17651245207574
ONEWEB-0314             
1 49100U 21075AB  25335.72417362  .00000009  00000+0 -10060-4 0  9999
2 49100  87.9130  45.1039 0001291 101.9988 258.1288 13.17648323207567
ONEWEB-0315             
1 49101U 21075AC  25335.67891161  .00000402  00000+0  10828-2 0  9993
2 49101  87.8949  29.8770 0001600 111.7127 248.4172 13.12443965209267
ONEWEB-0316             
1 49102U 21075AD  25335.80409222  .00000112  00000+0  25062-3 0  9997
2 49102  87.9189  14.6714 0001711  99.2877 260.8449 13.18686186211190
ONEWEB-0317             
1 49103U 21075AE  25335.67241841  .00000066  00000+0  14721-3 0  9992
2 49103  87.8953  29.8956 0002070  77.8901 282.2459 13.12442898209284
ONEWEB-0318             
1 49104U 21075AF  25335.64903862  .00000029  00000+0  39664-4 0  9991
2 49104  87.9191  14.6892 0001609 105.8341 254.2969 13.18684750211131
ONEWEB-0319             
1 49105U 21075AG  25335.66342505  .00000002  00000+0 -28143-4 0  9997
2 49105  87.9121  45.1514 0001449 113.0338 247.0946 13.17648888207595
ONEWEB-0323             
1 49106U 21075AH  25335.66268477 -.00000164  00000+0 -48983-3 0  9996
2 49106  87.8960  29.8832 0000869 124.7854 235.3356 13.12445136208643
ONEWEB-0329             
1 49107U 21075AJ  25335.67187190  .00000006  00000+0 -18765-4 0  9990
2 49107  87.9118  45.1516 0001566 101.8862 258.2445 13.17648832207577
ONEWEB-0330             
1 49108U 21075AK  25335.67270473  .00000022  00000+0  23809-4 0  9990
2 49108  87.9121  45.1567 0001521  96.0336 264.0969 13.17648457207614
ONEWEB-0292             
1 49186U 21083A   25335.78941296 -.00000177  00000+0 -51826-3 0  9997
2 49186  87.8977 359.4964 0001666  98.4664 261.6654 13.13470772205015
ONEWEB-0303             
1 49187U 21083B   25335.64574325  .00000015  00000+0  56661-5 0  9991
2 49187  87.9194  14.6916 0001665 101.5110 258.6210 13.18684492203941
ONEWEB-0306             
1 49188U 21083C   25335.63584830  .00000016  00000+0  68549-5 0  9992
2 49188  87.9191  14.6782 0001923  90.3616 269.7737 13.18683972203986
ONEWEB-0307             
1 49189U 21083D   25335.78348557 -.00000155  00000+0 -45864-3 0  9992
2 49189  87.8973 359.4897 0001740  93.6640 266.4688 13.13468639205012
ONEWEB-0320             
1 49190U 21083E   25335.64327564  .00000009  00000+0 -10668-4 0  9996
2 49190  87.9186  14.7062 0001769  96.1250 264.0084 13.18683653203946
ONEWEB-0321             
1 49191U 21083F   25335.85449155 -.00000037  00000+0 -12183-3 0  9996
2 49191  87.9193 313.7878 0002036  78.6723 281.4639 13.20769720210782
ONEWEB-0322             
1 49192U 21083G   25335.77925837 -.00000045  00000+0 -15706-3 0  9997
2 49192  87.8977 359.4922 0002206  87.9290 272.2091 13.13469862205005
ONEWEB-0324             
1 49193U 21083H   25335.62924162  .00000087  00000+0  18800-3 0  9994
2 49193  87.9193  14.6861 0001644  93.7866 266.3455 13.18684272203968
ONEWEB-0325             
1 49194U 21083J   25335.63255313 -.00000024  00000+0 -94511-4 0  9998
2 49194  87.9193  14.7046 0001827  96.2532 263.8808 13.18685247203974
ONEWEB-0326             
1 49195U 21083K   25335.64752956 -.00000026  00000+0 -98602-4 0  9992
2 49195  87.9191  14.6887 0001733 107.2797 252.8525 13.18684743203960
ONEWEB-0327             
1 49196U 21083L   25335.64724868 -.00000055  00000+0 -17330-3 0  9994
2 49196  87.9185  14.7092 0001865 108.7379 251.3956 13.18684387203989
